#aV2024  5 22  0  0  0.00000000     288 DD+AD WGS84 FIT  NGA
## 2315 259200.00000000   300.00000000 60452 0.0000000000000
+   31     2  3  4  5  6  7  8  9 10 11 12 13 14 15 16 17 18
+         19 20 21 22 23 24 25 26 27 28 29 30 31 32  0  0  0
+          0  0  0  0  0  0  0  0  0  0  0  0  0  0  0  0  0
+          0  0  0  0  0  0  0  0  0  0  0  0  0  0  0  0  0
+          0  0  0  0  0  0  0  0  0  0  0  0  0  0  0  0  0
++         2  2  2  2  2  2  2  2  2  2  2  2  2  2  2  2  2
++         2  2  2  2  2  2  2  2  2  2  2  2  2  2  0  0  0
++         0  0  0  0  0  0  0  0  0  0  0  0  0  0  0  0  0
++         0  0  0  0  0  0  0  0  0  0  0  0  0  0  0  0  0
++         0  0  0  0  0  0  0  0  0  0  0  0  0  0  0  0  0
%c cc cc ccc ccc cccc cccc cccc cccc ccccc ccccc ccccc ccccc
%c cc cc ccc ccc cccc cccc cccc cccc ccccc ccccc ccccc ccccc
%f  0.0000000  0.000000000  0.00000000000  0.000000000000000
%f  0.0000000  0.000000000  0.00000000000  0.000000000000000
%i    0    0    0    0      0      0      0      0         0
%i    0    0    0    0      0      0      0      0         0
/*      NGA, ST. LOUIS,MO.                                  
/*   EPHEMERIS COMPUTED FROM 2 DAYS OF DATA                 
/*   EPOCHA v9 SMOOTHER                                     
/*   G2296 IERS2010 SATIGS SATAPC                           
*  2024  5 22 21 55  0.00000000
P  2  -9275.166284  19125.766546 -15263.820004   -431.448367                    
V  2 -18014.474984   9712.738205  22703.040711      0.068410                    
P  3   4196.732720  17609.805661 -19634.763070    376.815759                    
V  3 -21533.200813 -11702.739348 -15098.826223      0.191913                    
P  4  -1292.892569  26453.764112   -319.798213    366.928096                    
V  4  -2798.457556   -542.333259 -31922.259182      0.083394                    
P  5  11545.641227 -10423.422025  21362.155202   -173.652601                    
V  5  24144.684555  13171.577720  -6481.292703     -0.013474                    
P  6  23084.786304  -3103.146659 -12805.923659    259.279782                    
V  6 -13535.884731   9151.143474 -26384.893004     -0.199992                    
P  7  10670.689706  11858.492486  21791.754600   -134.528558                    
V  7 -22931.198821  13201.525278   3677.909170     -0.080796                    
P  8  -6822.817157  23129.362688  10525.384707    192.210242                    
V  8  -3413.529727 -13596.959633  27801.590276      0.197665                    
P  9   8282.471625  22559.469029  11171.395155    206.264555                    
V  9  -2278.321253  14377.309276 -27199.538672      0.142280                    
P 10 -24113.148887 -10319.059017  -4963.820668    -27.858779                    
V 10  -4704.084644  -4820.026391  31239.925876     -0.069609                    
P 11  23739.385392 -11845.141875   -273.369159   -668.526797                    
V 11    887.741474   2574.300411 -31904.732057     -0.090014                    
P 12   -890.453627 -17593.353426 -20175.864886   -507.660025                    
V 12  21204.730072  13235.385700 -12603.689037     -0.032980                    
P 13  13240.578668 -16595.959574  15603.747161    652.496759                    
V 13  -1032.460874  20330.573931  22432.856731      0.028493                    
P 14  23217.930822  13038.772616  -1559.220512    407.238584                    
V 14     84.825219   3688.163146  31210.624181      0.092655                    
P 15   3845.200962 -24024.317125   9920.293814    161.919628                    
V 15   5411.505339  12772.045222  27658.416557      0.041339                    
P 16 -15606.634423   6292.128387  20322.236221   -284.638847                    
V 16 -21122.474446 -15928.899507 -10670.353899      0.100908                    
P 17  12881.979346  11343.695684 -19806.345289    703.857362                    
V 17  -2927.066569  25964.887511  12856.429441     -0.038414                    
P 18 -10833.072650 -10876.329604  21706.130879   -614.546300                    
V 18  23979.112931 -13403.871217   5062.590294     -0.055572                    
P 19  15053.258730   1617.516872 -22000.124177    485.796456                    
V 19  -2853.694146  27336.171894   -324.580717      0.053516                    
P 20  20254.347280  -4949.329470  16430.555994    375.624403                    
V 20  18830.102918   9125.683558 -20685.323189     -0.013695                    
P 21 -13495.543994  18999.940832 -11283.246308    120.049597                    
V 21 -14481.063878   6115.218434  27592.423531     -0.022699                    
P 22  23062.246292   8543.339782  -9222.547386    -17.268312                    
V 22   8437.997670   9520.852847  28911.447146     -0.051949                    
P 23 -20151.394671 -16150.163017   6664.409909    231.995289                    
V 23   8278.744736   2307.971331  30541.450267      0.093531                    
P 24   9995.430286 -20051.667683 -14361.676360   -471.949907                    
V 24  16192.251179  -7872.006897  23345.494529     -0.032471                    
P 25 -11213.980157 -18918.073100 -15414.494575    496.173655                    
V 25  17430.531516   7554.406308 -22187.687828      0.006539                    
P 26 -23916.315588  -1944.861657  11623.219172    148.878636                    
V 26 -12178.086005  -9096.653911 -25871.432392     -0.057875                    
P 27 -12725.700169  13836.148540  18299.913987    -25.199209                    
V 27  -1829.158444 -23982.930136  17013.739461     -0.016960                    
P 28 -22071.084806   1484.672970 -14709.994310   -255.501740                    
V 28  14822.668565 -11524.285786 -23421.659846     -0.165595                    
P 29  -4273.144819 -24485.017735   9143.172606   -597.400241                    
V 29   3307.131757 -11477.725186 -29131.721934      0.015181                    
P 30  19801.317098   3682.915563  17591.953781   -386.252588                    
V 30 -18229.247819  12518.664770  17780.291724      0.059738                    
P 31 -24673.895592   9042.257673  -5329.227383   -227.736449                    
V 31   4426.773525  -5332.279486 -30393.607285      0.001188                    
P 32 -14369.833861  -8367.561997 -20541.710503   -617.920615                    
V 32    713.724440 -26522.578715  10004.155024      0.005574                    
EOF
